OBJECT_NAME,OBJECT_ID,EPOCH,MEAN_MOTION,ECCENTRICITY,INCLINATION,RA_OF_ASC_NODE,ARG_OF_PERICENTER,MEAN_ANOMALY,EPHEMERIS_TYPE,CLASSIFICATION_TYPE,NORAD_CAT_ID,ELEMENT_SET_NO,REV_AT_EPOCH,BSTAR,MEAN_MOTION_DOT,MEAN_MOTION_DDOT
SITRO-AIS 7 (FARTUSHNIY),2023-091AE,2026-06-29T12:18:30.322080,15.25847541,.0012547,97.5063,243.4027,69.3000,290.9582,0,U,57194,999,16615,.37779E-3,.962E-4,0
AVION KALUGA 650,2023-091AF,2026-06-29T11:15:50.813568,15.20479544,.0011693,97.5087,239.9962,72.2962,287.9549,0,U,57195,999,16589,.24211E-3,.5227E-4,0
HORS 2,2023-091AG,2026-06-29T12:12:32.060160,15.32196497,.0008488,97.5089,247.7078,50.1385,310.0601,0,U,57196,999,16641,.4014E-3,.12418E-3,0
A-SEANSAT-PG1,2023-091AH,2026-06-29T12:14:14.405280,15.37376202,.0007305,97.5082,250.3566,46.7998,313.3855,0,U,57197,999,16660,.46565E-3,.17007E-3,0
SITRO-AIS 10 (BURDAEV),2023-091AK,2026-06-29T11:22:56.769024,15.39063347,.0006451,97.5082,251.3130,41.6076,318.5659,0,U,57199,999,16665,.49273E-3,.19017E-3,0
SITRO-AIS 9 (SHCHUKIN),2023-091AM,2026-06-29T12:06:39.851424,15.38565677,.0006716,97.5080,251.0644,41.4729,318.7024,0,U,57201,999,16664,.47969E-3,.18212E-3,0
UTMN 2 (RS27S),2023-091AP,2026-06-29T11:15:53.154144,15.32344368,.0008396,97.5088,247.8621,45.9471,314.2461,0,U,57203,999,16642,.39956E-3,.12418E-3,0
SITRO-AIS 12 (SMIRENNIY),2023-091AQ,2026-06-29T11:49:46.915104,15.38857307,.0006226,97.5094,251.5272,36.1179,324.0485,0,U,57204,999,16666,.47281E-3,.18119E-3,0
SITRO-AIS 11 (SHEFFER),2023-091AU,2026-06-29T12:04:10.051968,15.39290697,.0006089,97.5091,251.7919,35.8478,324.3174,0,U,57208,999,16668,.48308E-3,.1878E-3,0
H2SAT (HEINRICH HERTZ),2023-093A,2026-06-28T22:43:42.504672,1.00266150,.00013123,0.0353,101.7283,39.0645,117.8751,0,U,57213,999,1103,0,.12E-6,0
KUZGTU 1 (RS47S),2023-091AV,2026-06-29T12:37:17.542272,15.30138204,.0011671,97.5064,245.1328,59.4218,300.8172,0,U,57217,999,16626,.40361E-3,.11722E-3,0
QIANKUN-1,2023-103B,2026-06-28T06:00:10.013760,16.07647770,.00348004,96.1475,223.3187,144.0163,216.3476,0,U,57422,999,16907,.35084656E-4,.30038E-3,.204894E-5
FENGYUN 3F,2023-111A,2026-06-29T12:24:31.521600,14.19941046,.0001507,98.6833,250.2959,84.2062,275.9286,0,U,57490,999,15061,.43289E-4,.49E-6,0
HJ-2F,2023-116A,2026-06-29T13:02:42.890208,15.22492313,.0008467,97.3838,185.5476,13.1798,346.9658,0,U,57519,999,16063,.30369E-3,.6973E-4,0
XRISM,2023-137A,2026-06-29T12:45:04.802112,15.12569031,.0007759,31.0024,279.6377,88.2975,271.8552,0,U,57800,999,15473,.24045E-3,.4399E-4,0
METEOR-M2 4,2024-039A,2026-06-29T11:50:19.798080,14.22430706,.0007891,98.7016,139.6369,128.0752,232.1139,0,U,59051,999,12101,.18553E-4,-.2E-7,0
GRBBETA,2024-128C,2026-06-29T10:21:24.706944,15.06710402,.0039057,61.9878,173.3040,137.2474,223.1669,0,U,60237,999,10811,.21587E-3,.3058E-4,0
TRANSPORTER-11 OBJECT A,2024-149A,2026-06-29T03:56:02.522976,15.33098091,.0003925,97.3736,260.0571,157.3574,202.7842,0,U,60468,999,10389,.26547E-3,.8412E-4,0
WARATAH SEED-1,2024-149B,2026-06-29T03:54:03.946752,15.36239081,.0002465,97.3694,260.7498,151.9954,208.1423,0,U,60469,999,10395,.35891E-3,.12603E-3,0
PHISAT 2,2024-149C,2026-06-29T11:08:43.435104,15.31221330,.0002202,97.3760,259.6128,150.9780,209.1584,0,U,60470,999,10387,.21533E-3,.6416E-4,0
LEMUR-2-TOMATOKECHUP,2024-149D,2026-06-29T03:47:55.648608,15.36274472,.0002448,97.3805,262.2365,152.8235,207.3137,0,U,60471,999,10400,.28906E-3,.10143E-3,0
CONNECTA IOT-1,2024-149E,2026-06-28T15:43:12.246240,15.23624904,.00012684,97.3763,255.7527,180.0994,180.0243,0,U,60472,999,10354,.15739734E-3,.3699E-4,0
LOPEN,2024-149F,2026-06-29T11:27:16.082208,15.40032867,.0001828,97.3784,263.9431,161.9929,198.1382,0,U,60473,999,10415,.34968E-3,.13891E-3,0
ROCK,2024-149G,2026-06-28T17:58:46.734528,15.40005062,.00020957,97.3782,263.2241,164.3844,195.7467,0,U,60474,999,10404,.35340141E-3,.14028E-3,0
CONNECTA IOT-3,2024-149H,2026-06-29T12:43:16.643136,15.23644765,.0002423,97.3737,256.3624,188.1395,171.9803,0,U,60475,999,10368,.16721E-3,.3937E-4,0
QUBE,2024-149J,2026-06-28T19:30:58.180896,15.47746307,.00026884,97.3784,266.4737,165.0830,195.0500,0,U,60476,999,10426,.47573138E-3,.24596E-3,0
WREN-1,2024-149L,2026-06-29T11:10:47.386272,15.42028079,.0004279,97.3772,264.7103,199.7564,160.3518,0,U,60478,999,10421,.46642E-3,.19844E-3,0
TOMORROW-S1,2024-149M,2026-06-29T03:33:38.064672,15.32883090,.0002798,97.3754,260.5836,171.1994,188.9298,0,U,60479,999,10392,.22072E-3,.6932E-4,0
FLOCK 4BE-18,2024-149N,2026-06-29T03:37:06.051936,15.42230126,.0003965,97.3733,264.0073,191.3927,168.7231,0,U,60480,999,10415,.3675E-3,.15714E-3,0
