SITRO-AIS 7 (FARTUSHNIY)
1 57194U 23091AE  26180.51285095  .00009620  00000+0  37779-3 0  9995
2 57194  97.5063 243.4027 0012547  69.3000 290.9582 15.25847541166153
AVION KALUGA 650        
1 57195U 23091AF  26180.46933812  .00005227  00000+0  24211-3 0  9993
2 57195  97.5087 239.9962 0011693  72.2962 287.9549 15.20479544165897
HORS 2                  
1 57196U 23091AG  26180.50870440  .00012418  00000+0  40140-3 0  9995
2 57196  97.5089 247.7078 0008488  50.1385 310.0601 15.32196497166419
A-SEANSAT-PG1           
1 57197U 23091AH  26180.50988895  .00017007  00000+0  46565-3 0  9996
2 57197  97.5082 250.3566 0007305  46.7998 313.3855 15.37376202166600
SITRO-AIS 10 (BURDAEV)  
1 57199U 23091AK  26180.47426816  .00019017  00000+0  49273-3 0  9996
2 57199  97.5082 251.3130 0006451  41.6076 318.5659 15.39063347166651
SITRO-AIS 9 (SHCHUKIN)  
1 57201U 23091AM  26180.50462791  .00018212  00000+0  47969-3 0  9992
2 57201  97.5080 251.0644 0006716  41.4729 318.7024 15.38565677166646
UTMN 2 (RS27S)          
1 57203U 23091AP  26180.46936521  .00012418  00000+0  39956-3 0  9995
2 57203  97.5088 247.8621 0008396  45.9471 314.2461 15.32344368166421
SITRO-AIS 12 (SMIRENNIY)
1 57204U 23091AQ  26180.49290411  .00018119  00000+0  47281-3 0  9994
2 57204  97.5094 251.5272 0006226  36.1179 324.0485 15.38857307166669
SITRO-AIS 11 (SHEFFER)  
1 57208U 23091AU  26180.50289412  .00018780  00000+0  48308-3 0  9994
2 57208  97.5091 251.7919 0006089  35.8478 324.3174 15.39290697166689
H2SAT (HEINRICH HERTZ)  
1 57213U 23093A   26179.94701973  .00000012  00000+0  00000+0 0  9991
2 57213   0.0353 101.7283 0001312  39.0645 117.8751  1.00266150 11033
KUZGTU 1 (RS47S)        
1 57217U 23091AV  26180.52589748  .00011722  00000+0  40361-3 0  9991
2 57217  97.5064 245.1328 0011671  59.4218 300.8172 15.30138204166264
QIANKUN-1               
1 57422U 23103B   26179.25011590  .00030038  20489-5  35085-4 0  9994
2 57422  96.1475 223.3187 0034800 144.0163 216.3476 16.07647770169071
FENGYUN 3F              
1 57490U 23111A   26180.51703150  .00000049  00000+0  43289-4 0  9994
2 57490  98.6833 250.2959 0001507  84.2062 275.9286 14.19941046150612
HJ-2F                   
1 57519U 23116A   26180.54355197  .00006973  00000+0  30369-3 0  9994
2 57519  97.3838 185.5476 0008467  13.1798 346.9658 15.22492313160636
XRISM                   
1 57800U 23137A   26180.53130558  .00004399  00000+0  24045-3 0  9995
2 57800  31.0024 279.6377 0007759  88.2975 271.8552 15.12569031154733
METEOR-M2 4             
1 59051U 24039A   26180.49328470 -.00000002  00000+0  18553-4 0  9990
2 59051  98.7016 139.6369 0007891 128.0752 232.1139 14.22430706121015
GRBBETA                 
1 60237U 24128C   26180.43153596  .00003058  00000+0  21587-3 0  9999
2 60237  61.9878 173.3040 0039057 137.2474 223.1669 15.06710402108115
TRANSPORTER-11 OBJECT A 
1 60468U 24149A   26180.16391809  .00008412  00000+0  26547-3 0  9999
2 60468  97.3736 260.0571 0003925 157.3574 202.7842 15.33098091103898
WARATAH SEED-1          
1 60469U 24149B   26180.16254568  .00012603  00000+0  35891-3 0  9999
2 60469  97.3694 260.7498 0002465 151.9954 208.1423 15.36239081103958
PHISAT 2                
1 60470U 24149C   26180.46439161  .00006416  00000+0  21533-3 0  9991
2 60470  97.3760 259.6128 0002202 150.9780 209.1584 15.31221330103879
LEMUR-2-TOMATOKECHUP    
1 60471U 24149D   26180.15828297  .00010143  00000+0  28906-3 0  9993
2 60471  97.3805 262.2365 0002448 152.8235 207.3137 15.36274472104001
CONNECTA IOT-1          
1 60472U 24149E   26179.65500285  .00003699  00000+0  15740-3 0  9991
2 60472  97.3763 255.7527 0001268 180.0994 180.0243 15.23624904103544
LOPEN                   
1 60473U 24149F   26180.47726947  .00013891  00000+0  34968-3 0  9997
2 60473  97.3784 263.9431 0001828 161.9929 198.1382 15.40032867104153
ROCK                    
1 60474U 24149G   26179.74915202  .00014028  00000+0  35340-3 0  9998
2 60474  97.3782 263.2241 0002095 164.3844 195.7467 15.40005062104046
CONNECTA IOT-3          
1 60475U 24149H   26180.53005374  .00003937  00000+0  16721-3 0  9997
2 60475  97.3737 256.3624 0002423 188.1395 171.9803 15.23644765103684
QUBE                    
1 60476U 24149J   26179.81317339  .00024596  00000+0  47573-3 0  9997
2 60476  97.3784 266.4737 0002688 165.0830 195.0500 15.47746307104262
WREN-1                  
1 60478U 24149L   26180.46582623  .00019844  00000+0  46642-3 0  9998
2 60478  97.3772 264.7103 0004279 199.7564 160.3518 15.42028079104218
TOMORROW-S1             
1 60479U 24149M   26180.14835723  .00006932  00000+0  22072-3 0  9991
2 60479  97.3754 260.5836 0002798 171.1994 188.9298 15.32883090103920
FLOCK 4BE-18            
1 60480U 24149N   26180.15076449  .00015714  00000+0  36750-3 0  9992
2 60480  97.3733 264.0073 0003965 191.3927 168.7231 15.42230126104154
